NORAD_CAT_ID,OBJECT_NAME,OBJECT_TYPE,EPOCH,MEAN_MOTION,ECCENTRICITY,INCLINATION,RA_OF_ASC_NODE,ARG_OF_PERICENTER,MEAN_ANOMALY,BSTAR,MEAN_MOTION_DOT,MEAN_MOTION_DDOT,TLE_LINE0,TLE_LINE1,TLE_LINE2,SEMIMAJOR_AXIS,PERIOD,APOGEE,PERIGEE,DECAYED
51720.0,STARLINK-3526,PAYLOAD,2022-07-07 22:00:00,15.0881619,0.0001885,53.214,228.0805,42.1281,105.1739,0.0015308,0.00024143,0.0,0 STARLINK-3526,1 51720U 22016G   22188.91667824  .00024143  00000-0  15308-2 0  9993,2 51720  53.2140 228.0805 0001885  42.1281 105.1739 15.08816190  1306,6917.953,95.439,541.122,538.514,0.0
51720.0,STARLINK-3526,PAYLOAD,2022-07-08 06:00:02,15.0884935,0.0001976,53.2143,226.5848,43.2939,115.6437,-0.0018905,-0.00030258,0.0,0 STARLINK-3526,1 51720U 22016G   22189.25002315 -.00030258  00000-0 -18905-2 0  9991,2 51720  53.2143 226.5848 0001976  43.2939 115.6437 15.08849350 22120,6917.852,95.437,541.0840000000002,538.35,0.0
51720.0,STARLINK-3526,PAYLOAD,2022-07-08 11:39:29,15.08835196,0.0002104,53.2149,225.5265,42.0844,318.031,0.00015559,2.189e-05,0.0,0 STARLINK-3526,1 51720U 22016G   22189.48575563  .00002189  00000-0  15559-3 0  9999,2 51720  53.2149 225.5265 0002104  42.0844 318.0310 15.08835196 21091,6917.895,95.438,541.216,538.305,0.0
51720.0,STARLINK-3526,PAYLOAD,2022-07-08 22:00:01,15.08831668,0.0001949,53.2137,223.5912,42.5735,139.5819,0.0022157,0.00035143,0.0,0 STARLINK-3526,1 51720U 22016G   22189.91668981  .00035143  00000-0  22157-2 0  9991,2 51720  53.2137 223.5912 0001949  42.5735 139.5819 15.08831668 22221,6917.906,95.438,541.119,538.423,0.0
51720.0,STARLINK-3526,PAYLOAD,2022-07-09 14:00:01,15.08849325,0.0002183,53.2135,220.6002,38.7245,166.5695,-0.0004083,-6.782e-05,0.0,0 STARLINK-3526,1 51720U 22016G   22190.58334491 -.00006782  00000-0 -40830-3 0  9990,2 51720  53.2135 220.6002 0002183  38.7245 166.5695 15.08849325  1308,6917.852,95.437,541.227,538.207,0.0
51720.0,STARLINK-3526,PAYLOAD,2022-07-09 16:00:00,15.08875385,0.0002127,53.2134,220.2256,38.4033,259.7851,-0.0044899,-0.00071111,0.0,0 STARLINK-3526,1 51720U 22016G   22190.66667824 -.00071111  00000-0 -44899-2 0  9994,2 51720  53.2134 220.2256 0002127  38.4033 259.7851 15.08875385 22334,6917.772,95.435,541.109,538.1659999999998,0.0
51720.0,STARLINK-3526,PAYLOAD,2022-07-09 20:00:01,15.08836989,0.0002006,53.2138,219.4763,40.6753,83.3293,-0.0015063,-0.0002418,0.0,0 STARLINK-3526,1 51720U 22016G   22190.83334491 -.00024180  00000-0 -15063-2 0  9999,2 51720  53.2138 219.4763 0002006  40.6753  83.3293 15.08836989  1303,6917.89,95.438,541.1419999999998,538.367,0.0
51720.0,STARLINK-3526,PAYLOAD,2022-07-10 06:00:00,15.08841688,0.0002105,53.2137,217.6065,41.4375,187.0615,-0.0015914,-0.00025528,0.0,0 STARLINK-3526,1 51720U 22016G   22191.25001157 -.00025528  00000-0 -15914-2 0  9998,2 51720  53.2137 217.6065 0002105  41.4375 187.0615 15.08841688 22424,6917.875,95.437,541.196,538.284,0.0
51720.0,STARLINK-3526,PAYLOAD,2022-07-10 14:00:01,15.08823701,0.0002234,53.2135,216.1108,37.971,202.1145,0.0012306,0.00019343,0.0,0 STARLINK-3526,1 51720U 22016G   22191.58334491  .00019343  00000-0  12306-2 0  9992,2 51720  53.2135 216.1108 0002234  37.9710 202.1145 15.08823701  1307,6917.93,95.439,541.341,538.25,0.0
51720.0,STARLINK-3526,PAYLOAD,2022-07-10 22:00:00,15.08810858,0.0002074,53.2137,214.6125,41.9685,209.7075,0.0025398,0.00040333,0.0,0 STARLINK-3526,1 51720U 22016G   22191.91667824  .00040333  00000-0  25398-2 0  9996,2 51720  53.2137 214.6125 0002074  41.9685 209.7075 15.08810858 22520,6917.969,95.439,541.269,538.4,0.0
51720.0,STARLINK-3526,PAYLOAD,2022-07-11 14:00:01,15.08837014,0.0002309,53.2134,211.6214,39.03,235.8166,0.0004808,7.372e-05,0.0,0 STARLINK-3526,1 51720U 22016G   22192.58334491  .00007372  00000-0  48080-3 0  9991,2 51720  53.2134 211.6214 0002309  39.0300 235.8166 15.08837014  1303,6917.89,95.438,541.352,538.1569999999998,0.0
51720.0,STARLINK-3526,PAYLOAD,2022-07-11 22:00:00,15.08817892,0.0002143,53.2136,210.1231,43.7723,242.6789,0.0027773,0.00044164,0.0,0 STARLINK-3526,1 51720U 22016G   22192.91667824  .00044164  00000-0  27773-2 0  9992,2 51720  53.2136 210.1231 0002143  43.7723 242.6789 15.08817892  1304,6917.948,95.439,541.295,538.33,0.0
51720.0,STARLINK-3526,PAYLOAD,2022-07-12 14:00:01,15.08852385,0.0002347,53.2132,207.1317,40.3546,269.2876,-0.00012155,-2.223e-05,0.0,0 STARLINK-3526,1 51720U 22016G   22193.58334491 -.00002223  00000-0 -12155-3 0  9998,2 51720  53.2132 207.1317 0002347  40.3546 269.2876 15.08852385  1301,6917.843000000003,95.437,541.331,538.0840000000002,0.0
51720.0,STARLINK-3526,PAYLOAD,2022-07-12 22:00:00,15.08832133,0.0002141,53.2135,205.6336,45.2386,276.0219,0.0023919,0.00037977,0.0,0 STARLINK-3526,1 51720U 22016G   22193.91667824  .00037977  00000-0  23919-2 0  9995,2 51720  53.2135 205.6336 0002141  45.2386 276.0219 15.08832133 22822,6917.904,95.438,541.251,538.288,0.0
51720.0,STARLINK-3526,PAYLOAD,2022-07-13 14:00:01,15.08837662,0.000228,53.2131,202.6421,39.6451,304.8089,-0.00073408,-0.00011952,0.0,0 STARLINK-3526,1 51720U 22016G   22194.58334491 -.00011952  00000-0 -73408-3 0  9996,2 51720  53.2131 202.6421 0002280  39.6451 304.8089 15.08837662  1301,6917.888000000001,95.438,541.33,538.175,0.0
51720.0,STARLINK-3526,PAYLOAD,2022-07-13 16:00:00,15.08846798,0.0002238,53.2132,202.2675,41.4158,35.9326,-0.0021209,-0.00033892,0.0,0 STARLINK-3526,1 51720U 22016G   22194.66667824 -.00033892  00000-0 -21209-2 0  9992,2 51720  53.2132 202.2675 0002238  41.4158  35.9326 15.08846798 22946,6917.86,95.437,541.273,538.1759999999998,0.0
51720.0,STARLINK-3526,PAYLOAD,2022-07-13 22:00:00,15.08807601,0.0002091,53.2133,201.1442,45.3402,310.7081,0.0029645,0.00047167,0.0,0 STARLINK-3526,1 51720U 22016G   22194.91667824  .00047167  00000-0  29645-2 0  9990,2 51720  53.2133 201.1442 0002091  45.3402 310.7081 15.08807601  1308,6917.979,95.44,541.2909999999998,538.398,0.0
51720.0,STARLINK-3526,PAYLOAD,2022-07-14 08:00:01,15.08834533,0.0002314,53.2133,199.2754,43.1204,57.4074,-0.00020273,-3.513e-05,0.0,0 STARLINK-3526,1 51720U 22016G   22195.33334491 -.00003513  00000-0 -20273-3 0  9996,2 51720  53.2133 199.2754 0002314  43.1204  57.4074 15.08834533 23041,6917.897,95.438,541.363,538.161,0.0
51720.0,STARLINK-3526,PAYLOAD,2022-07-14 14:00:01,15.08844724,0.0002294,53.2129,198.1526,41.6714,337.5386,-0.001186,-0.00019117,0.0,0 STARLINK-3526,1 51720U 22016G   22195.58334491 -.00019117  00000-0 -11860-2 0  9991,2 51720  53.2129 198.1526 0002294  41.6714 337.5386 15.08844724  1303,6917.866,95.437,541.318,538.144,0.0
51720.0,STARLINK-3526,PAYLOAD,2022-07-14 22:00:00,15.08814638,0.0002127,53.213,196.6548,47.5999,343.2104,0.0027943,0.00044434,0.0,0 STARLINK-3526,1 51720U 22016G   22195.91667824  .00044434  00000-0  27943-2 0  9994,2 51720  53.2130 196.6548 0002127  47.5999 343.2104 15.08814638  1300,6917.958000000001,95.439,541.294,538.351,0.0
51720.0,STARLINK-3526,PAYLOAD,2022-07-15 14:00:01,15.08852957,0.0002332,53.2129,193.6632,43.8578,10.1282,-0.0013623,-0.00021913,0.0,0 STARLINK-3526,1 51720U 22016G   22196.58334491 -.00021913  00000-0 -13623-2 0  9998,2 51720  53.2129 193.6632 0002332  43.8578  10.1282 15.08852957 23238,6917.840999999999,95.437,541.319,538.0930000000002,0.0
51720.0,STARLINK-3526,PAYLOAD,2022-07-15 22:00:00,15.0882487,0.0002202,53.2131,192.1653,49.6045,15.9883,0.0025457,0.00040444,0.0,0 STARLINK-3526,1 51720U 22016G   22196.91667824  .00040444  00000-0  25457-2 0  9990,2 51720  53.2131 192.1653 0002202  49.6045  15.9883 15.08824870  1304,6917.927,95.439,541.315,538.268,0.0
51720.0,STARLINK-3526,PAYLOAD,2022-07-16 06:00:00,15.08852938,0.0002383,53.2133,190.6706,46.7258,30.463,-0.0011543,-0.00018619,0.0,0 STARLINK-3526,1 51720U 22016G   22197.25001157 -.00018619  00000-0 -11543-2 0  9991,2 51720  53.2133 190.6706 0002383  46.7258  30.4630 15.08852938 23337,6917.840999999999,95.437,541.354,538.057,0.0
51720.0,STARLINK-3526,PAYLOAD,2022-07-16 14:00:01,15.088725199999995,0.000235,53.2132,189.1737,44.4353,44.3537,-0.0045305,-0.00071741,0.0,0 STARLINK-3526,1 51720U 22016G   22197.58334491 -.00071741  00000-0 -45305-2 0  9995,2 51720  53.2132 189.1737 0002350  44.4353  44.3537 15.08872520  1300,6917.781,95.435,541.2719999999998,538.02,0.0
51720.0,STARLINK-3526,PAYLOAD,2022-07-16 22:00:00,15.08811477,0.0002202,53.2135,187.6758,49.0056,51.392,0.0023461,0.00037219,0.0,0 STARLINK-3526,1 51720U 22016G   22197.91667824  .00037219  00000-0  23461-2 0  9990,2 51720  53.2135 187.6758 0002202  49.0056  51.3920 15.08811477  1304,6917.968000000003,95.439,541.356,538.309,0.0
51720.0,STARLINK-3526,PAYLOAD,2022-07-17 06:00:00,15.08834633,0.0002401,53.2136,186.1812,46.2297,65.7463,-0.00074812,-0.00012174,0.0,0 STARLINK-3526,1 51720U 22016G   22198.25001157 -.00012174  00000-0 -74812-3 0  9991,2 51720  53.2136 186.1812 0002401  46.2297  65.7463 15.08834633 23480,6917.897,95.438,541.423,538.101,0.0
51720.0,STARLINK-3526,PAYLOAD,2022-07-17 14:00:01,15.08849908,0.0002393,53.2138,184.6843,45.1623,78.3934,-0.001593,-0.0002556,0.0,0 STARLINK-3526,1 51720U 22016G   22198.58334491 -.00025560  00000-0 -15930-2 0  9995,2 51720  53.2138 184.6843 0002393  45.1623  78.3934 15.08849908  1301,6917.85,95.437,541.371,538.06,0.0
51720.0,STARLINK-3526,PAYLOAD,2022-07-17 22:00:00,15.08827938,0.0002314,53.2142,183.1866,50.5484,84.6031,0.001982,0.00031387,0.0,0 STARLINK-3526,1 51720U 22016G   22198.91667824  .00031387  00000-0  19820-2 0  9995,2 51720  53.2142 183.1866 0002314  50.5484  84.6031 15.08827938 23584,6917.917,95.438,541.383,538.181,0.0
51720.0,STARLINK-3526,PAYLOAD,2022-07-18 14:00:01,15.08861172,0.0002416,53.2143,180.195,45.8232,112.5223,-0.0039541,-0.0006271,0.0,0 STARLINK-3526,1 51720U 22016G   22199.58334491 -.00062710  00000-0 -39541-2 0  9998,2 51720  53.2143 180.1950 0002416  45.8232 112.5223 15.08861172  1305,6917.816,95.436,541.352,538.009,0.0
